{
  "type": "FeatureCollection",
  "features": [
    {
      "type": "Feature",
      "properties": {
        "norad_id": 38755,
        "name": "SPOT 6",
        "group": "resource",
        "lat": -20.67277124484548,
        "lon": -117.60431630070458,
        "alt_km": 703.6073934071464,
        "timestamp": "2025-12-26T23:26:41.810486+00:00",
        "meta_object_name": "SPOT 6",
        "meta_object_id": "2012-047A",
        "meta_epoch": "2025-12-26T17:35:16.804032",
        "meta_mean_motion": 14.58544761,
        "meta_eccentricity": 0.0001223,
        "meta_inclination": 98.1549,
        "meta_ra_of_asc_node": 65.2578,
        "meta_arg_of_pericenter": 76.8526,
        "meta_mean_anomaly": 283.281,
        "meta_ephemeris_type": 0,
        "meta_classification_type": "U",
        "meta_norad_cat_id": 38755,
        "meta_element_set_no": 999,
        "meta_rev_at_epoch": 70791,
        "meta_bstar": 0.0001083,
        "meta_mean_motion_dot": 4.58e-06,
        "meta_mean_motion_ddot": 0,
        "tle_line1": "1 38755U 12047A   25360.73283338  .00000458  00000+0  10830-3 0  9996",
        "tle_line2": "2 38755  98.1549  65.2578 0001223  76.8526 283.2810 14.58544761707914"
      },
      "geometry": {
        "type": "Point",
        "coordinates": [
          -117.60431630070458,
          -20.67277124484548
        ]
      }
    },
    {
      "type": "Feature",
      "properties": {
        "norad_id": 39019,
        "name": "PLEIADES 1B",
        "group": "resource",
        "lat": 77.59984044865183,
        "lon": -65.7537041087698,
        "alt_km": 689.7291683187486,
        "timestamp": "2025-12-26T23:26:41.810495+00:00",
        "meta_object_name": "PLEIADES 1B",
        "meta_object_id": "2012-068A",
        "meta_epoch": "2025-12-26T18:03:07.219296",
        "meta_mean_motion": 14.58566278,
        "meta_eccentricity": 0.0001153,
        "meta_inclination": 98.1773,
        "meta_ra_of_asc_node": 73.1815,
        "meta_arg_of_pericenter": 85.4946,
        "meta_mean_anomaly": 274.6385,
        "meta_ephemeris_type": 0,
        "meta_classification_type": "U",
        "meta_norad_cat_id": 39019,
        "meta_element_set_no": 999,
        "meta_rev_at_epoch": 69571,
        "meta_bstar": 0.00014114,
        "meta_mean_motion_dot": 6.11e-06,
        "meta_mean_motion_ddot": 0,
        "tle_line1": "1 39019U 12068A   25360.75216689  .00000611  00000+0  14114-3 0  9990",
        "tle_line2": "2 39019  98.1773  73.1815 0001153  85.4946 274.6385 14.58566278695715"
      },
      "geometry": {
        "type": "Point",
        "coordinates": [
          -65.7537041087698,
          77.59984044865183
        ]
      }
    },
    {
      "type": "Feature",
      "properties": {
        "norad_id": 39030,
        "name": "GOKTURK 2",
        "group": "resource",
        "lat": 82.24763978621215,
        "lon": 104.83377721973015,
        "alt_km": 635.6806274908831,
        "timestamp": "2025-12-26T23:26:41.810504+00:00",
        "meta_object_name": "GOKTURK 2",
        "meta_object_id": "2012-073A",
        "meta_epoch": "2025-12-26T18:09:03.583008",
        "meta_mean_motion": 14.75311372,
        "meta_eccentricity": 0.0001496,
        "meta_inclination": 97.6886,
        "meta_ra_of_asc_node": 201.7203,
        "meta_arg_of_pericenter": 106.6518,
        "meta_mean_anomaly": 253.4856,
        "meta_ephemeris_type": 0,
        "meta_classification_type": "U",
        "meta_norad_cat_id": 39030,
        "meta_element_set_no": 999,
        "meta_rev_at_epoch": 69908,
        "meta_bstar": 0.00014617,
        "meta_mean_motion_dot": 9.43e-06,
        "meta_mean_motion_ddot": 0,
        "tle_line1": "1 39030U 12073A   25360.75629147  .00000943  00000+0  14617-3 0  9992",
        "tle_line2": "2 39030  97.6886 201.7203 0001496 106.6518 253.4856 14.75311372699082"
      },
      "geometry": {
        "type": "Point",
        "coordinates": [
          104.83377721973015,
          82.24763978621215
        ]
      }
    },
    {
      "type": "Feature",
      "properties": {
        "norad_id": 39084,
        "name": "LANDSAT 8",
        "group": "resource",
        "lat": -15.363828743337503,
        "lon": -113.43321153137141,
        "alt_km": 707.4025535596629,
        "timestamp": "2025-12-26T23:26:41.810513+00:00",
        "meta_object_name": "LANDSAT 8",
        "meta_object_id": "2013-008A",
        "meta_epoch": "2025-12-26T17:36:24.640128",
        "meta_mean_motion": 14.5711645,
        "meta_eccentricity": 0.0001052,
        "meta_inclination": 98.2054,
        "meta_ra_of_asc_node": 68.5994,
        "meta_arg_of_pericenter": 93.9343,
        "meta_mean_anomaly": 266.1976,
        "meta_ephemeris_type": 0,
        "meta_classification_type": "U",
        "meta_norad_cat_id": 39084,
        "meta_element_set_no": 999,
        "meta_rev_at_epoch": 67278,
        "meta_bstar": 0.00010817,
        "meta_mean_motion_dot": 4.42e-06,
        "meta_mean_motion_ddot": 0,
        "tle_line1": "1 39084U 13008A   25360.73361852  .00000442  00000+0  10817-3 0  9996",
        "tle_line2": "2 39084  98.2054  68.5994 0001052  93.9343 266.1976 14.57116450672785"
      },
      "geometry": {
        "type": "Point",
        "coordinates": [
          -113.43321153137141,
          -15.363828743337503
        ]
      }
    },
    {
      "type": "Feature",
      "properties": {
        "norad_id": 39086,
        "name": "SARAL",
        "group": "resource",
        "lat": 14.639123974927111,
        "lon": -177.53089140338037,
        "alt_km": 782.5281596155219,
        "timestamp": "2025-12-26T23:26:41.810522+00:00",
        "meta_object_name": "SARAL",
        "meta_object_id": "2013-009A",
        "meta_epoch": "2025-12-26T18:20:52.482048",
        "meta_mean_motion": 14.32761917,
        "meta_eccentricity": 0.0002953,
        "meta_inclination": 98.5504,
        "meta_ra_of_asc_node": 184.5118,
        "meta_arg_of_pericenter": 82.2945,
        "meta_mean_anomaly": 277.8574,
        "meta_ephemeris_type": 0,
        "meta_classification_type": "U",
        "meta_norad_cat_id": 39086,
        "meta_element_set_no": 999,
        "meta_rev_at_epoch": 67091,
        "meta_bstar": 7.034e-05,
        "meta_mean_motion_dot": 1.48e-06,
        "meta_mean_motion_ddot": 0,
        "tle_line1": "1 39086U 13009A   25360.76449632  .00000148  00000+0  70340-4 0  9996",
        "tle_line2": "2 39086  98.5504 184.5118 0002953  82.2945 277.8574 14.32761917670910"
      },
      "geometry": {
        "type": "Point",
        "coordinates": [
          -177.53089140338037,
          14.639123974927111
        ]
      }
    },
    {
      "type": "Feature",
      "properties": {
        "norad_id": 39150,
        "name": "GAOFEN-1",
        "group": "resource",
        "lat": -51.00429944153107,
        "lon": -118.53103701375197,
        "alt_km": 655.9914923377119,
        "timestamp": "2025-12-26T23:26:41.810531+00:00",
        "meta_object_name": "GAOFEN-1",
        "meta_object_id": "2013-018A",
        "meta_epoch": "2025-12-26T17:31:17.076864",
        "meta_mean_motion": 14.76504598,
        "meta_eccentricity": 0.0018552,
        "meta_inclination": 97.9305,
        "meta_ra_of_asc_node": 71.1405,
        "meta_arg_of_pericenter": 100.5714,
        "meta_mean_anomaly": 259.7587,
        "meta_ephemeris_type": 0,
        "meta_classification_type": "U",
        "meta_norad_cat_id": 39150,
        "meta_element_set_no": 999,
        "meta_rev_at_epoch": 68279,
        "meta_bstar": 0.00013719,
        "meta_mean_motion_dot": 9.07e-06,
        "meta_mean_motion_ddot": 0,
        "tle_line1": "1 39150U 13018A   25360.73005876  .00000907  00000+0  13719-3 0  9992",
        "tle_line2": "2 39150  97.9305  71.1405 0018552 100.5714 259.7587 14.76504598682794"
      },
      "geometry": {
        "type": "Point",
        "coordinates": [
          -118.53103701375197,
          -51.00429944153107
        ]
      }
    },
    {
      "type": "Feature",
      "properties": {
        "norad_id": 39160,
        "name": "VNREDSAT 1",
        "group": "resource",
        "lat": 60.10857597027709,
        "lon": 41.70892202650524,
        "alt_km": 670.6594189874722,
        "timestamp": "2025-12-26T23:26:41.810540+00:00",
        "meta_object_name": "VNREDSAT 1",
        "meta_object_id": "2013-021B",
        "meta_epoch": "2025-12-26T18:14:57.523200",
        "meta_mean_motion": 14.64943685,
        "meta_eccentricity": 0.0001153,
        "meta_inclination": 97.9349,
        "meta_ra_of_asc_node": 55.5424,
        "meta_arg_of_pericenter": 81.2881,
        "meta_mean_anomaly": 278.8453,
        "meta_ephemeris_type": 0,
        "meta_classification_type": "U",
        "meta_norad_cat_id": 39160,
        "meta_element_set_no": 999,
        "meta_rev_at_epoch": 67504,
        "meta_bstar": 0.00015963,
        "meta_mean_motion_dot": 8.09e-06,
        "meta_mean_motion_ddot": 0,
        "tle_line1": "1 39160U 13021B   25360.76038800  .00000809  00000+0  15963-3 0  9997",
        "tle_line2": "2 39160  97.9349  55.5424 0001153  81.2881 278.8453 14.64943685675044"
      },
      "geometry": {
        "type": "Point",
        "coordinates": [
          41.70892202650524,
          60.10857597027709
        ]
      }
    }
  ]
}